[Satellite]
VERSION=1.1
NAME=BEESAT-3
NICKNAME=BEESAT-3
TLE1=1 39135U 13015F   18020.76807880  .00000759  00000-0  48755-4 0  9990
TLE2=2 39135  64.8684 255.1026 0030936 253.5500 106.2225 15.16327984261903
